start=new Date('2022-04-11T00:00:00.000Z').valueOf();
sats=[{"EPHEMERIS_TYPE":"0","MEAN_MOTION_DDOT":"0.0000000000000","CLASSIFICATION_TYPE":"U","FILE":"3396586","OBJECT_ID":"2022-005A","INCLINATION":"53.2171","OBJECT_TYPE":"PAYLOAD","MEAN_ANOMALY":"53.5623","MEAN_ELEMENT_THEORY":"SGP4","ECCENTRICITY":"0.00014160","LAUNCH_DATE":"2022-01-19","ARG_OF_PERICENTER":"45.3695","EPOCH":"2022-04-10T22:00:00.999936","TLE_LINE2":"2 51104  53.2171 229.9153 0001416  45.3695  53.5623 15.56937322  3704","OBJECT_NAME":"STARLINK-3366","BSTAR":"-0.01063400000000","TLE_LINE1":"1 51104U 22005A   22100.91667824 -.00714004  00000-0 -10634-1 0  9991","REV_AT_EPOCH":"370","RA_OF_ASC_NODE":"229.9153","TIME_SYSTEM":"UTC","DECAY_DATE":null,"COUNTRY_CODE":"US","SEMIMAJOR_AXIS":"6774.664","SITE":"AFETR","MEAN_MOTION":"15.56937322","APOAPSIS":"397.488","GP_ID":"200943660","REF_FRAME":"TEME","CENTER_NAME":"EARTH","NORAD_CAT_ID":"51104","RCS_SIZE":"LARGE","MEAN_MOTION_DOT":"-0.00714004","ELEMENT_SET_NO":"999","PERIAPSIS":"395.570","PERIOD":"92.489"},{"SEMIMAJOR_AXIS":"6771.851","COUNTRY_CODE":"US","SITE":"AFETR","RA_OF_ASC_NODE":"229.9258","REV_AT_EPOCH":"370","BSTAR":"-0.01026300000000","TLE_LINE1":"1 51105U 22005B   22100.91667824 -.00714722  00000-0 -10263-1 0  9997","TIME_SYSTEM":"UTC","DECAY_DATE":null,"OBJECT_TYPE":"PAYLOAD","INCLINATION":"53.2172","MEAN_ANOMALY":"84.5322","MEAN_ELEMENT_THEORY":"SGP4","OBJECT_ID":"2022-005B","FILE":"3396586","ARG_OF_PERICENTER":"43.5040","OBJECT_NAME":"STARLINK-3350","TLE_LINE2":"2 51105  53.2172 229.9258 0001503  43.5040  84.5322 15.57907372  3706","EPOCH":"2022-04-10T22:00:00.999936","ECCENTRICITY":"0.00015030","LAUNCH_DATE":"2022-01-19","EPHEMERIS_TYPE":"0","MEAN_MOTION_DDOT":"0.0000000000000","CLASSIFICATION_TYPE":"U","ELEMENT_SET_NO":"999","PERIAPSIS":"392.699","PERIOD":"92.432","NORAD_CAT_ID":"51105","MEAN_MOTION_DOT":"-0.00714722","RCS_SIZE":"LARGE","REF_FRAME":"TEME","CENTER_NAME":"EARTH","MEAN_MOTION":"15.57907372","APOAPSIS":"394.734","GP_ID":"200942408"},{"TLE_LINE2":"2 51106  53.2170 229.9178 0001393  42.9069  27.9109 15.56297965  3700","OBJECT_NAME":"STARLINK-3176","EPOCH":"2022-04-10T22:00:00.999936","ARG_OF_PERICENTER":"42.9069","LAUNCH_DATE":"2022-01-19","ECCENTRICITY":"0.00013930","OBJECT_TYPE":"PAYLOAD","INCLINATION":"53.2170","MEAN_ANOMALY":"27.9109","MEAN_ELEMENT_THEORY":"SGP4","FILE":"3396586","OBJECT_ID":"2022-005C","CLASSIFICATION_TYPE":"U","EPHEMERIS_TYPE":"0","MEAN_MOTION_DDOT":"0.0000000000000","SITE":"AFETR","SEMIMAJOR_AXIS":"6776.519","COUNTRY_CODE":"US","DECAY_DATE":null,"TIME_SYSTEM":"UTC","RA_OF_ASC_NODE":"229.9178","REV_AT_EPOCH":"370","TLE_LINE1":"1 51106U 22005C   22100.91667824 -.00713708  00000-0 -10887-1 0  9993","BSTAR":"-0.01088700000000","CENTER_NAME":"EARTH","REF_FRAME":"TEME","GP_ID":"200942658","APOAPSIS":"399.328","MEAN_MOTION":"15.56297965","PERIAPSIS":"397.440","PERIOD":"92.527","ELEMENT_SET_NO":"999","MEAN_MOTION_DOT":"-0.00713708","RCS_SIZE":"LARGE","NORAD_CAT_ID":"51106"},{"EPHEMERIS_TYPE":"0","MEAN_MOTION_DDOT":"0.0000000000000","CLASSIFICATION_TYPE":"U","OBJECT_ID":"2022-005D","FILE":"3396586","OBJECT_TYPE":"PAYLOAD","MEAN_ANOMALY":"284.6639","MEAN_ELEMENT_THEORY":"SGP4","INCLINATION":"53.2172","ECCENTRICITY":"0.00014350","LAUNCH_DATE":"2022-01-19","ARG_OF_PERICENTER":"49.1716","OBJECT_NAME":"STARLINK-3368","TLE_LINE2":"2 51107  53.2172 234.0189 0001435  49.1716 284.6639 15.29708518  3674","EPOCH":"2022-04-10T22:00:00.999936","BSTAR":"-0.02672800000000","TLE_LINE1":"1 51107U 22005D   22100.91667824 -.00719168  00000-0 -26728-1 0  9991","REV_AT_EPOCH":"367","RA_OF_ASC_NODE":"234.0189","TIME_SYSTEM":"UTC","DECAY_DATE":null,"COUNTRY_CODE":"US","SEMIMAJOR_AXIS":"6854.820","SITE":"AFETR","MEAN_MOTION":"15.29708518","APOAPSIS":"477.669","GP_ID":"200943910","REF_FRAME":"TEME","CENTER_NAME":"EARTH","NORAD_CAT_ID":"51107","RCS_SIZE":"LARGE","MEAN_MOTION_DOT":"-0.00719168","ELEMENT_SET_NO":"999","PERIOD":"94.136","PERIAPSIS":"475.701"},{"CLASSIFICATION_TYPE":"U","MEAN_MOTION_DDOT":"0.0000000000000","EPHEMERIS_TYPE":"0","ARG_OF_PERICENTER":"35.8320","OBJECT_NAME":"STARLINK-3362","TLE_LINE2":"2 51108  53.2172 229.9246 0001600  35.8320  97.4197 15.58036182  3705","EPOCH":"2022-04-10T22:00:00.999936","ECCENTRICITY":"0.00016000","LAUNCH_DATE":"2022-01-19","OBJECT_TYPE":"PAYLOAD","MEAN_ANOMALY":"97.4197","MEAN_ELEMENT_THEORY":"SGP4","INCLINATION":"53.2172","FILE":"3396586","OBJECT_ID":"2022-005E","TIME_SYSTEM":"UTC","DECAY_DATE":null,"REV_AT_EPOCH":"370","RA_OF_ASC_NODE":"229.9246","TLE_LINE1":"1 51108U 22005E   22100.91667824 -.00716213  00000-0 -10236-1 0  9997","BSTAR":"-0.01023600000000","SITE":"AFETR","SEMIMAJOR_AXIS":"6771.478","COUNTRY_CODE":"US","GP_ID":"200944161","MEAN_MOTION":"15.58036182","APOAPSIS":"394.427","CENTER_NAME":"EARTH","REF_FRAME":"TEME","MEAN_MOTION_DOT":"-0.00716213","RCS_SIZE":"LARGE","NORAD_CAT_ID":"51108","ELEMENT_SET_NO":"999","PERIAPSIS":"392.260","PERIOD":"92.424"},{"REF_FRAME":"TEME","CENTER_NAME":"EARTH","APOAPSIS":"413.729","MEAN_MOTION":"15.51407483","GP_ID":"200942909","PERIAPSIS":"411.507","PERIOD":"92.819","ELEMENT_SET_NO":"999","NORAD_CAT_ID":"51109","RCS_SIZE":"LARGE","MEAN_MOTION_DOT":"-0.00423736","FILE":"3396586","OBJECT_ID":"2022-005F","MEAN_ELEMENT_THEORY":"SGP4","OBJECT_TYPE":"PAYLOAD","INCLINATION":"53.2172","MEAN_ANOMALY":"105.8932","LAUNCH_DATE":"2022-01-19","ECCENTRICITY":"0.00016360","EPOCH":"2022-04-10T22:00:00.999936","TLE_LINE2":"2 51109  53.2172 230.4887 0001636  39.9899 105.8932 15.51407483  3697","OBJECT_NAME":"STARLINK-3358","ARG_OF_PERICENTER":"39.9899","EPHEMERIS_TYPE":"0","MEAN_MOTION_DDOT":"0.0000000000000","CLASSIFICATION_TYPE":"U","COUNTRY_CODE":"US","SEMIMAJOR_AXIS":"6790.753","SITE":"AFETR","BSTAR":"-0.00745220000000","TLE_LINE1":"1 51109U 22005F   22100.91667824 -.00423736  00000-0 -74522-2 0  9992","REV_AT_EPOCH":"369","RA_OF_ASC_NODE":"230.4887","DECAY_DATE":null,"TIME_SYSTEM":"UTC"},{"CLASSIFICATION_TYPE":"U","MEAN_MOTION_DDOT":"0.0000000000000","EPHEMERIS_TYPE":"0","LAUNCH_DATE":"2022-01-19","ECCENTRICITY":"0.00014710","OBJECT_NAME":"STARLINK-3344","TLE_LINE2":"2 51110  53.2173 229.9218 0001471  46.2334  97.3352 15.58291201  3702","EPOCH":"2022-04-10T22:00:00.999936","ARG_OF_PERICENTER":"46.2334","OBJECT_ID":"2022-005G","FILE":"3396586","OBJECT_TYPE":"PAYLOAD","MEAN_ELEMENT_THEORY":"SGP4","INCLINATION":"53.2173","MEAN_ANOMALY":"97.3352","DECAY_DATE":null,"TIME_SYSTEM":"UTC","TLE_LINE1":"1 51110U 22005G   22100.91667824 -.00715251  00000-0 -10123-1 0  9996","BSTAR":"-0.01012300000000","REV_AT_EPOCH":"370","RA_OF_ASC_NODE":"229.9218","SITE":"AFETR","COUNTRY_CODE":"US","SEMIMAJOR_AXIS":"6770.739","GP_ID":"200943159","APOAPSIS":"393.600","MEAN_MOTION":"15.58291201","CENTER_NAME":"EARTH","REF_FRAME":"TEME","RCS_SIZE":"LARGE","MEAN_MOTION_DOT":"-0.00715251","NORAD_CAT_ID":"51110","PERIOD":"92.409","PERIAPSIS":"391.608","ELEMENT_SET_NO":"999"},{"NORAD_CAT_ID":"51111","MEAN_MOTION_DOT":"-0.00713867","RCS_SIZE":"LARGE","ELEMENT_SET_NO":"999","PERIOD":"92.497","PERIAPSIS":"395.949","MEAN_MOTION":"15.56809415","APOAPSIS":"397.851","GP_ID":"200943410","REF_FRAME":"TEME","CENTER_NAME":"EARTH","RA_OF_ASC_NODE":"229.9158","REV_AT_EPOCH":"370","TLE_LINE1":"1 51111U 22005H   22100.91667824 -.00713867  00000-0 -10683-1 0  9999","BSTAR":"-0.01068300000000","TIME_SYSTEM":"UTC","DECAY_DATE":null,"SEMIMAJOR_AXIS":"6775.035","COUNTRY_CODE":"US","SITE":"AFETR","MEAN_MOTION_DDOT":"0.0000000000000","EPHEMERIS_TYPE":"0","CLASSIFICATION_TYPE":"U","OBJECT_TYPE":"PAYLOAD","MEAN_ANOMALY":"48.9626","MEAN_ELEMENT_THEORY":"SGP4","INCLINATION":"53.2171","OBJECT_ID":"2022-005H","FILE":"3396586","ARG_OF_PERICENTER":"44.4233","OBJECT_NAME":"STARLINK-3173","TLE_LINE2":"2 51111  53.2171 229.9158 0001403  44.4233  48.9626 15.56809415  3703","EPOCH":"2022-04-10T22:00:00.999936","ECCENTRICITY":"0.00014030","LAUNCH_DATE":"2022-01-19"},{"OBJECT_TYPE":"PAYLOAD","INCLINATION":"53.2170","MEAN_ANOMALY":"13.4707","MEAN_ELEMENT_THEORY":"SGP4","OBJECT_ID":"2022-005J","FILE":"3396586","TLE_LINE2":"2 51112  53.2170 229.9182 0001333  45.8324  13.4707 15.56042323  3702","EPOCH":"2022-04-10T22:00:00.999936","OBJECT_NAME":"STARLINK-3374","ARG_OF_PERICENTER":"45.8324","LAUNCH_DATE":"2022-01-19","ECCENTRICITY":"0.00013330","EPHEMERIS_TYPE":"0","MEAN_MOTION_DDOT":"0.0000000000000","CLASSIFICATION_TYPE":"U","SEMIMAJOR_AXIS":"6777.261","COUNTRY_CODE":"US","SITE":"AFETR","RA_OF_ASC_NODE":"229.9182","REV_AT_EPOCH":"370","TLE_LINE1":"1 51112U 22005J   22100.91667824 -.00713731  00000-0 -10992-1 0  9993","BSTAR":"-0.01099200000000","DECAY_DATE":null,"TIME_SYSTEM":"UTC","REF_FRAME":"TEME","CENTER_NAME":"EARTH","APOAPSIS":"400.030","MEAN_MOTION":"15.56042323","GP_ID":"200943661","PERIOD":"92.542","PERIAPSIS":"398.223","ELEMENT_SET_NO":"999","NORAD_CAT_ID":"51112","MEAN_MOTION_DOT":"-0.00713731","RCS_SIZE":"LARGE"},{"CENTER_NAME":"EARTH","REF_FRAME":"TEME","GP_ID":"200942409","APOAPSIS":"399.063","MEAN_MOTION":"15.56425807","PERIAPSIS":"396.964","PERIOD":"92.520","ELEMENT_SET_NO":"999","MEAN_MOTION_DOT":"-0.00713733","RCS_SIZE":"LARGE","NORAD_CAT_ID":"51113","TLE_LINE2":"2 51113  53.2170 229.9173 0001549  37.0976  39.4199 15.56425807  3703","EPOCH":"2022-04-10T22:00:00.999936","OBJECT_NAME":"STARLINK-3372","ARG_OF_PERICENTER":"37.0976","LAUNCH_DATE":"2022-01-19","ECCENTRICITY":"0.00015490","MEAN_ELEMENT_THEORY":"SGP4","OBJECT_TYPE":"PAYLOAD","INCLINATION":"53.2170","MEAN_ANOMALY":"39.4199","FILE":"3396586","OBJECT_ID":"2022-005K","CLASSIFICATION_TYPE":"U","MEAN_MOTION_DDOT":"0.0000000000000","EPHEMERIS_TYPE":"0","SITE":"AFETR","SEMIMAJOR_AXIS":"6776.148","COUNTRY_CODE":"US","DECAY_DATE":null,"TIME_SYSTEM":"UTC","RA_OF_ASC_NODE":"229.9173","REV_AT_EPOCH":"370","BSTAR":"-0.01083500000000","TLE_LINE1":"1 51113U 22005K   22100.91667824 -.00713733  00000-0 -10835-1 0  9992"}];
